SILVERSAT               
1 66909U 98067XV  26038.73712105  .00146297  00000+0  15693-2 0  9999
2 66909  51.6271 217.1469 0002576 230.2251 129.8516 15.62808493 10491
ISS OBJECT XW           
1 66910U 98067XW  26038.75165351  .00124600  00000+0  14148-2 0  9996
2 66910  51.6262 217.2388 0000983 258.5946 101.4937 15.61429611 10491
ISS OBJECT XX           
1 66911U 98067XX  26038.70806818  .00165665  00000+0  16909-2 0  9995
2 66911  51.6247 216.9470 0002516 264.5889  95.4819 15.64004478 10483
ISS OBJECT XY           
1 66912U 98067XY  26038.74848449  .00088919  00000+0  11315-2 0  9998
2 66912  51.6283 217.9746 0001112 162.5092 197.5939 15.58603065 10471
ISS OBJECT XZ           
1 67683U 98067XZ  26038.88769107  .00039523  00000+0  70999-3 0  9993
2 67683  51.6309 219.6508 0011073  90.6637 269.5620 15.49415803   167
ISS OBJECT YA           
1 67684U 98067YA  26038.88692765  .00064754  00000+0  11370-2 0  9990
2 67684  51.6308 219.6466 0013084  86.5540 273.6945 15.49820253   166
LEOPARD                 
1 67685U 98067YB  26038.88750804  .00041622  00000+0  74418-3 0  9992
2 67685  51.6310 219.6497 0013041  85.9185 274.3294 15.49499945   160
ISS OBJECT YC           
1 67686U 98067YC  26038.88741536  .00046640  00000+0  83197-3 0  9994
2 67686  51.6317 219.6496 0007818  64.2438 295.9357 15.49573070   164
CORAL                   
1 67687U 98067YD  26038.88758450  .00039381  00000+0  70694-3 0  9990
2 67687  51.6314 219.6510 0007908  65.3596 294.8215 15.49469765    83
GXIBA-1                 
1 67688U 98067YE  26038.82293276  .00053906  00000+0  96013-3 0  9997
2 67688  51.6319 219.9696 0007810  64.9046 295.2753 15.49552993    71
